NORAD_CAT_ID,OBJECT_NAME,OBJECT_TYPE,EPOCH,MEAN_MOTION,ECCENTRICITY,INCLINATION,RA_OF_ASC_NODE,ARG_OF_PERICENTER,MEAN_ANOMALY,BSTAR,MEAN_MOTION_DOT,MEAN_MOTION_DDOT,TLE_LINE0,TLE_LINE1,TLE_LINE2,SEMIMAJOR_AXIS,PERIOD,APOGEE,PERIGEE,DECAYED
55749.0,STARLINK-5560,PAYLOAD,2023-05-30 02:02:31,14.98330763,0.0003151,70.0005,282.5768,269.6694,90.4104,2.0788e-06,-6.8e-07,0.0,0 STARLINK-5560,1 55749U 23028J   23150.08508129 -.00000068  00000-0  20788-5 0  9994,2 55749  70.0005 282.5768 0003151 269.6694  90.4104 14.98330763 14067,6950.191,96.107,574.246,569.866,0.0
55749.0,STARLINK-5560,PAYLOAD,2023-05-30 11:39:19,14.98331515,0.000317,70.0004,281.5671,268.7876,91.292,-3.3097e-05,-4.88e-06,0.0,0 STARLINK-5560,1 55749U 23028J   23150.48564119 -.00000488  00000-0 -33097-4 0  9992,2 55749  70.0004 281.5671 0003170 268.7876  91.2920 14.98331515 14129,6950.188,96.107,574.256,569.85,0.0
55749.0,STARLINK-5560,PAYLOAD,2023-05-30 16:27:43,14.98331104,0.0003178,70.0005,281.0622,268.7578,91.3217,-3.562e-05,-5.18e-06,0.0,0 STARLINK-5560,1 55749U 23028J   23150.68592128 -.00000518  00000-0 -35620-4 0  9993,2 55749  70.0005 281.0622 0003178 268.7578  91.3217 14.98331104 14155,6950.189,96.107,574.263,569.846,0.0
55749.0,STARLINK-5560,PAYLOAD,2023-05-31 02:04:31,14.98331229,0.0003236,70.0003,280.052,270.9341,89.1448,-2.1786e-05,-3.53e-06,0.0,0 STARLINK-5560,1 55749U 23028J   23151.08648028 -.00000353  00000-0 -21786-4 0  9994,2 55749  70.0003 280.0520 0003236 270.9341  89.1448 14.98331229 14213,6950.189,96.107,574.303,569.805,0.0
55749.0,STARLINK-5560,PAYLOAD,2023-05-31 13:17:28,14.98326282,0.0003255,70.0002,278.8737,270.7801,89.2985,-2.5848e-05,-4.01e-06,0.0,0 STARLINK-5560,1 55749U 23028J   23151.55380392 -.00000401  00000-0 -25848-4 0  9990,2 55749  70.0002 278.8737 0003255 270.7801  89.2985 14.98326282 14284,6950.204,96.107,574.332,569.807,0.0
55749.0,STARLINK-5560,PAYLOAD,2023-05-31 18:05:52,14.98329375,0.0003184,70.0004,278.368,270.9337,89.1457,-4.6039e-06,-1.48e-06,0.0,0 STARLINK-5560,1 55749U 23028J   23151.75408160 -.00000148  00000-0 -46039-5 0  9990,2 55749  70.0004 278.3680 0003184 270.9337  89.1457 14.98329375 14318,6950.195,96.107,574.273,569.847,0.0
55749.0,STARLINK-5560,PAYLOAD,2023-06-01 02:06:33,14.98327844,0.0003229,70.0002,277.5269,270.6843,89.3946,-1.1132e-05,-2.26e-06,0.0,0 STARLINK-5560,1 55749U 23028J   23152.08788279 -.00000226  00000-0 -11132-4 0  9991,2 55749  70.0002 277.5269 0003229 270.6843  89.3946 14.98327844 14368,6950.2,96.107,574.309,569.82,0.0
55749.0,STARLINK-5560,PAYLOAD,2023-06-01 10:07:13,14.98328705,0.0003266,70.0,276.685,270.3628,89.7156,1.9624e-05,1.41e-06,0.0,0 STARLINK-5560,1 55749U 23028J   23152.42168144  .00000141  00000-0  19624-4 0  9990,2 55749  70.0000 276.6850 0003266 270.3628  89.7156 14.98328705 14411,6950.197,96.107,574.332,569.792,0.0
55749.0,STARLINK-5560,PAYLOAD,2023-06-02 02:08:33,14.98331304,0.0003169,70.0004,275.0012,270.7452,89.3344,3.3862e-05,3.11e-06,0.0,0 STARLINK-5560,1 55749U 23028J   23153.08927955  .00000311  00000-0  33862-4 0  9995,2 55749  70.0004 275.0012 0003169 270.7452  89.3344 14.98331304 14514,6950.189,96.107,574.256,569.851,0.0
55749.0,STARLINK-5560,PAYLOAD,2023-06-02 11:45:22,14.98328265,0.0003178,70.0001,273.991,269.7488,90.3307,3.164e-05,2.85e-06,0.0,0 STARLINK-5560,1 55749U 23028J   23153.48984142  .00000285  00000-0  31640-4 0  9992,2 55749  70.0001 273.9910 0003178 269.7488  90.3307 14.98328265 14571,6950.198,96.107,574.272,569.854,0.0
55749.0,STARLINK-5560,PAYLOAD,2023-06-02 18:09:54,14.98328941,0.0003257,70.0,273.3177,268.4284,91.6501,5.393e-06,-2.9e-07,0.0,0 STARLINK-5560,1 55749U 23028J   23153.75688189 -.00000029  00000-0  53930-5 0  9998,2 55749  70.0000 273.3177 0003257 268.4284  91.6501 14.98328941 14613,6950.196,96.107,574.325,569.797,0.0
55749.0,STARLINK-5560,PAYLOAD,2023-06-03 10:11:15,14.983276,0.0003228,69.9999,271.6344,267.6055,92.4735,-2.9283e-05,-4.42e-06,0.0,0 STARLINK-5560,1 55749U 23028J   23154.42448458 -.00000442  00000-0 -29283-4 0  9999,2 55749  69.9999 271.6344 0003228 267.6055  92.4735 14.98327600 14719,6950.2,96.107,574.309,569.822,0.0
55749.0,STARLINK-5560,PAYLOAD,2023-06-03 13:23:31,14.9832782,0.0003202,70.0001,271.2979,268.7341,91.3452,-2.574e-05,-4e-06,0.0,0 STARLINK-5560,1 55749U 23028J   23154.55800460 -.00000400  00000-0 -25740-4 0  9996,2 55749  70.0001 271.2979 0003202 268.7341  91.3452 14.98327820 14738,6950.2,96.107,574.29,569.839,0.0
55749.0,STARLINK-5560,PAYLOAD,2023-06-03 18:11:55,14.98329959,0.0003196,70.0003,270.7932,270.7928,89.2865,-3.099e-06,-1.3e-06,0.0,0 STARLINK-5560,1 55749U 23028J   23154.75828295 -.00000130  00000-0 -30990-5 0  9998,2 55749  70.0003 270.7932 0003196 270.7928  89.2865 14.98329959 14761,6950.193,96.107,574.279,569.837,0.0
55749.0,STARLINK-5560,PAYLOAD,2023-06-04 10:13:16,14.98330894,0.0003272,70.0002,269.1101,271.2661,88.8124,5.929e-05,6.14e-06,0.0,0 STARLINK-5560,1 55749U 23028J   23155.42588015  .00000614  00000-0  59290-4 0  9994,2 55749  70.0002 269.1101 0003272 271.2661  88.8124 14.98330894 14869,6950.19,96.107,574.329,569.781,0.0
55749.0,STARLINK-5560,PAYLOAD,2023-06-04 13:25:32,14.98331671,0.0003262,70.0002,268.7735,271.4593,88.6192,6.5213e-05,6.85e-06,0.0,0 STARLINK-5560,1 55749U 23028J   23155.55939940  .00000685  00000-0  65213-4 0  9995,2 55749  70.0002 268.7735 0003262 271.4593  88.6192 14.98331671 14881,6950.188,96.107,574.32,569.786,0.0
55749.0,STARLINK-5560,PAYLOAD,2023-06-04 18:13:56,14.98334166,0.0003234,70.0003,268.2683,272.4257,87.6532,9.02e-05,9.84e-06,0.0,0 STARLINK-5560,1 55749U 23028J   23155.75967686  .00000984  00000-0  90200-4 0  9991,2 55749  70.0003 268.2683 0003234 272.4257  87.6532 14.98334166 14919,6950.18,96.107,574.293,569.797,0.0
55749.0,STARLINK-5560,PAYLOAD,2023-06-05 10:15:17,14.98329423,0.0003241,70.0001,266.5851,271.738,88.3408,2.094e-05,1.57e-06,0.0,0 STARLINK-5560,1 55749U 23028J   23156.42728084  .00000157  00000-0  20940-4 0  9999,2 55749  70.0001 266.5851 0003241 271.7380  88.3408 14.98329423 15014,6950.195,96.107,574.312,569.807,0.0
55749.0,STARLINK-5560,PAYLOAD,2023-06-05 13:27:32,14.98331829,0.0003084,70.0002,266.2494,264.1907,95.89,5.331e-05,5.43e-06,0.0,0 STARLINK-5560,1 55749U 23028J   23156.56079802  .00000543  00000-0  53310-4 0  9997,2 55749  70.0002 266.2494 0003084 264.1907  95.8900 14.98331829 15036,6950.187,96.107,574.196,569.909,0.0
55749.0,STARLINK-5560,PAYLOAD,2023-06-05 16:39:49,14.98325869,0.0003266,70.0002,265.9127,267.3581,92.7204,0.00013245,1.488e-05,0.0,0 STARLINK-5560,1 55749U 23028J   23156.69431971  .00001488  00000-0  13245-3 0  9991,2 55749  70.0002 265.9127 0003266 267.3581  92.7204 14.98325869 15052,6950.206,96.107,574.341,569.801,0.0
55749.0,STARLINK-5560,PAYLOAD,2023-06-06 11:53:26,14.98328129,0.0003289,70.0003,263.8927,267.9945,92.0837,-2.8337e-05,-4.31e-06,0.0,0 STARLINK-5560,1 55749U 23028J   23157.49544180 -.00000431  00000-0 -28337-4 0  9995,2 55749  70.0003 263.8927 0003289 267.9945  92.0837 14.98328129 15173,6950.199,96.107,574.35,569.778,0.0
55749.0,STARLINK-5560,PAYLOAD,2023-06-06 15:05:42,14.98329164,0.0003131,70.0004,263.5561,264.0889,95.9913,-5.3445e-05,-7.31e-06,0.0,0 STARLINK-5560,1 55749U 23028J   23157.62896199 -.00000731  00000-0 -53445-4 0  9991,2 55749  70.0004 263.5561 0003131 264.0889  95.9913 14.98329164 15195,6950.195,96.107,574.237,569.884,0.0
55749.0,STARLINK-5560,PAYLOAD,2023-06-06 16:41:50,14.98329917,0.0003126,70.0005,263.3878,264.0806,95.9997,-4.9023e-05,-6.78e-06,0.0,0 STARLINK-5560,1 55749U 23028J   23157.69572139 -.00000678  00000-0 -49023-4 0  9990,2 55749  70.0005 263.3878 0003126 264.0806  95.9997 14.98329917 15208,6950.193,96.107,574.231,569.886,0.0
55749.0,STARLINK-5560,PAYLOAD,2023-06-07 08:43:10,14.98328693,0.0003267,70.0005,261.7046,268.905,91.1735,9.3812e-06,1.9e-07,0.0,0 STARLINK-5560,1 55749U 23028J   23158.36332056  .00000019  00000-0  93812-5 0  9990,2 55749  70.0005 261.7046 0003267 268.9050  91.1735 14.98328693 15306,6950.197,96.107,574.333,569.791,0.0
55749.0,STARLINK-5560,PAYLOAD,2023-06-07 16:43:51,14.98330433,0.0003127,70.0005,260.8629,264.6343,95.446,2.9958e-05,2.64e-06,0.0,0 STARLINK-5560,1 55749U 23028J   23158.69711892  .00000264  00000-0  29958-4 0  9996,2 55749  70.0005 260.8629 0003127 264.6343  95.4460 14.98330433 15358,6950.192,96.107,574.23,569.883,0.0
55749.0,STARLINK-5560,PAYLOAD,2023-06-08 11:57:27,14.98329038,0.000331,70.0,258.8421,268.9058,91.1722,7.8997e-05,8.5e-06,0.0,0 STARLINK-5560,1 55749U 23028J   23159.49823789  .00000850  00000-0  78997-4 0  9992,2 55749  70.0000 258.8421 0003310 268.9058  91.1722 14.98329038 15470,6950.196,96.107,574.361,569.76,0.0
55749.0,STARLINK-5560,PAYLOAD,2023-06-08 13:33:35,14.9833086,0.0003343,70.0001,258.674,269.2484,90.8292,5.1178e-05,5.18e-06,0.0,0 STARLINK-5560,1 55749U 23028J   23159.56499748  .00000518  00000-0  51178-4 0  9997,2 55749  70.0001 258.6740 0003343 269.2484  90.8292 14.98330860 15480,6950.19,96.107,574.379,569.732,0.0
55749.0,STARLINK-5560,PAYLOAD,2023-06-08 16:45:51,14.98332842,0.0003334,70.0001,258.3374,269.2889,90.7888,7.0413e-05,7.47e-06,0.0,0 STARLINK-5560,1 55749U 23028J   23159.69851553  .00000747  00000-0  70413-4 0  9994,2 55749  70.0001 258.3374 0003334 269.2889  90.7888 14.98332842 15504,6950.184,96.107,574.366,569.732,0.0
55749.0,STARLINK-5560,PAYLOAD,2023-06-09 10:23:20,14.98330125,0.0003281,70.0004,256.4863,271.0962,88.9821,-3.2779e-06,-1.32e-06,0.0,0 STARLINK-5560,1 55749U 23028J   23160.43287910 -.00000132  00000-0 -32779-5 0  9992,2 55749  70.0004 256.4863 0003281 271.0962  88.9821 14.98330125 15613,6950.193,96.107,574.338,569.777,0.0
55749.0,STARLINK-5560,PAYLOAD,2023-06-09 16:47:52,14.9833175,0.0003248,70.0004,255.8129,271.0628,89.0159,1.652e-05,1.04e-06,0.0,0 STARLINK-5560,1 55749U 23028J   23160.69991724  .00000104  00000-0  16520-4 0  9997,2 55749  70.0004 255.8129 0003248 271.0628  89.0159 14.98331750 15658,6950.187,96.107,574.31,569.795,0.0
